{
  "type": "FeatureCollection",
  "features": [
    {
      "type": "Feature",
      "properties": {
        "norad_id": 41581,
        "name": "INTELSAT 31 (IS-31)",
        "group": "intelsat",
        "lat": -0.02186279263882516,
        "lon": -109.64578935091143,
        "alt_km": 35776.06170414385,
        "timestamp": "2025-12-22T16:55:17.118245+00:00",
        "meta_object_name": "INTELSAT 31 (IS-31)",
        "meta_object_id": "2016-035A",
        "meta_epoch": "2025-12-22T04:09:14.897376",
        "meta_mean_motion": 1.00291043,
        "meta_eccentricity": 0.0002768,
        "meta_inclination": 0.032,
        "meta_ra_of_asc_node": 260.9833,
        "meta_arg_of_pericenter": 282.9191,
        "meta_mean_anomaly": 234.3596,
        "meta_ephemeris_type": 0,
        "meta_classification_type": "U",
        "meta_norad_cat_id": 41581,
        "meta_element_set_no": 999,
        "meta_rev_at_epoch": 3490,
        "meta_bstar": 0,
        "meta_mean_motion_dot": -1.32e-06,
        "meta_mean_motion_ddot": 0,
        "tle_line1": "1 41581U 16035A   25356.17308909 -.00000132  00000+0  00000+0 0  9997",
        "tle_line2": "2 41581   0.0320 260.9833 0002768 282.9191 234.3596  1.00291043 34900"
      },
      "geometry": {
        "type": "Point",
        "coordinates": [
          -109.64578935091143,
          -0.02186279263882516
        ]
      }
    },
    {
      "type": "Feature",
      "properties": {
        "norad_id": 41747,
        "name": "INTELSAT 36 (IS-36)",
        "group": "intelsat",
        "lat": 0.028434589241674055,
        "lon": 53.82652187584132,
        "alt_km": 35786.13864008158,
        "timestamp": "2025-12-22T16:55:17.118257+00:00",
        "meta_object_name": "INTELSAT 36 (IS-36)",
        "meta_object_id": "2016-053A",
        "meta_epoch": "2025-12-22T03:13:12.764928",
        "meta_mean_motion": 1.00270934,
        "meta_eccentricity": 9.841e-05,
        "meta_inclination": 0.0105,
        "meta_ra_of_asc_node": 357.6786,
        "meta_arg_of_pericenter": 328.626,
        "meta_mean_anomaly": 241.4387,
        "meta_ephemeris_type": 0,
        "meta_classification_type": "U",
        "meta_norad_cat_id": 41747,
        "meta_element_set_no": 999,
        "meta_rev_at_epoch": 3417,
        "meta_bstar": 0,
        "meta_mean_motion_dot": -2e-08,
        "meta_mean_motion_ddot": 0,
        "tle_line1": "1 41747U 16053A   25356.13417552 -.00000002  00000+0  00000+0 0  9998",
        "tle_line2": "2 41747   0.0105 357.6786 0000984 328.6260 241.4387  1.00270934 34171"
      },
      "geometry": {
        "type": "Point",
        "coordinates": [
          53.82652187584132,
          0.028434589241674055
        ]
      }
    },
    {
      "type": "Feature",
      "properties": {
        "norad_id": 41945,
        "name": "INTELSAT 32E (IS-32E)",
        "group": "intelsat",
        "lat": -0.037422309249562795,
        "lon": -57.87394821048055,
        "alt_km": 35787.075073555345,
        "timestamp": "2025-12-22T16:55:17.118269+00:00",
        "meta_object_name": "INTELSAT 32E (IS-32E)",
        "meta_object_id": "2017-007B",
        "meta_epoch": "2025-12-22T05:16:38.623008",
        "meta_mean_motion": 1.00267068,
        "meta_eccentricity": 7.668e-05,
        "meta_inclination": 0.0254,
        "meta_ra_of_asc_node": 68.7596,
        "meta_arg_of_pericenter": 316.2563,
        "meta_mean_anomaly": 101.9957,
        "meta_ephemeris_type": 0,
        "meta_classification_type": "U",
        "meta_norad_cat_id": 41945,
        "meta_element_set_no": 999,
        "meta_rev_at_epoch": 3245,
        "meta_bstar": 0,
        "meta_mean_motion_dot": -2.47e-06,
        "meta_mean_motion_ddot": 0,
        "tle_line1": "1 41945U 17007B   25356.21989147 -.00000247  00000+0  00000+0 0  9992",
        "tle_line2": "2 41945   0.0254  68.7596 0000766 316.2563 101.9957  1.00267068 32458"
      },
      "geometry": {
        "type": "Point",
        "coordinates": [
          -57.87394821048055,
          -0.037422309249562795
        ]
      }
    },
    {
      "type": "Feature",
      "properties": {
        "norad_id": 42818,
        "name": "INTELSAT 35E (IS-35E)",
        "group": "intelsat",
        "lat": -0.04138539425839462,
        "lon": -49.17417018804738,
        "alt_km": 35780.27031534914,
        "timestamp": "2025-12-22T16:55:17.118281+00:00",
        "meta_object_name": "INTELSAT 35E (IS-35E)",
        "meta_object_id": "2017-041A",
        "meta_epoch": "2025-12-22T06:09:10.912320",
        "meta_mean_motion": 1.00267807,
        "meta_eccentricity": 0.00019422,
        "meta_inclination": 0.022,
        "meta_ra_of_asc_node": 14.0034,
        "meta_arg_of_pericenter": 264.7914,
        "meta_mean_anomaly": 230.0647,
        "meta_ephemeris_type": 0,
        "meta_classification_type": "U",
        "meta_norad_cat_id": 42818,
        "meta_element_set_no": 999,
        "meta_rev_at_epoch": 3104,
        "meta_bstar": 0,
        "meta_mean_motion_dot": 0,
        "meta_mean_motion_ddot": 0,
        "tle_line1": "1 42818U 17041A   25356.25637630  .00000000  00000+0  00000+0 0  9997",
        "tle_line2": "2 42818   0.0220  14.0034 0001942 264.7914 230.0647  1.00267807 31041"
      },
      "geometry": {
        "type": "Point",
        "coordinates": [
          -49.17417018804738,
          -0.04138539425839462
        ]
      }
    },
    {
      "type": "Feature",
      "properties": {
        "norad_id": 42950,
        "name": "INTELSAT 37E (IS-37E)",
        "group": "intelsat",
        "lat": -0.021192195652086108,
        "lon": -32.645871820541714,
        "alt_km": 35781.10089429919,
        "timestamp": "2025-12-22T16:55:17.118292+00:00",
        "meta_object_name": "INTELSAT 37E (IS-37E)",
        "meta_object_id": "2017-059A",
        "meta_epoch": "2025-12-22T04:31:12.793728",
        "meta_mean_motion": 1.00271851,
        "meta_eccentricity": 0.00028938,
        "meta_inclination": 0.0055,
        "meta_ra_of_asc_node": 13.5689,
        "meta_arg_of_pericenter": 247.6376,
        "meta_mean_anomaly": 239.5969,
        "meta_ephemeris_type": 0,
        "meta_classification_type": "U",
        "meta_norad_cat_id": 42950,
        "meta_element_set_no": 999,
        "meta_rev_at_epoch": 3029,
        "meta_bstar": 0,
        "meta_mean_motion_dot": -1.19e-06,
        "meta_mean_motion_ddot": 0,
        "tle_line1": "1 42950U 17059A   25356.18834252 -.00000119  00000+0  00000+0 0  9996",
        "tle_line2": "2 42950   0.0055  13.5689 0002893 247.6376 239.5969  1.00271851 30293"
      },
      "geometry": {
        "type": "Point",
        "coordinates": [
          -32.645871820541714,
          -0.021192195652086108
        ]
      }
    },
    {
      "type": "Feature",
      "properties": {
        "norad_id": 43632,
        "name": "AZERSPACE 2 (IS-38)",
        "group": "intelsat",
        "lat": 0.024888950673837555,
        "lon": 30.441654900466045,
        "alt_km": 35789.185047553576,
        "timestamp": "2025-12-22T16:55:17.118304+00:00",
        "meta_object_name": "AZERSPACE 2 (IS-38)",
        "meta_object_id": "2018-074A",
        "meta_epoch": "2025-12-22T03:06:28.410336",
        "meta_mean_motion": 1.00270026,
        "meta_eccentricity": 0.00011749,
        "meta_inclination": 0.0187,
        "meta_ra_of_asc_node": 348.1932,
        "meta_arg_of_pericenter": 279.5458,
        "meta_mean_anomaly": 274.9316,
        "meta_ephemeris_type": 0,
        "meta_classification_type": "U",
        "meta_norad_cat_id": 43632,
        "meta_element_set_no": 999,
        "meta_rev_at_epoch": 2667,
        "meta_bstar": 0,
        "meta_mean_motion_dot": 1.59e-06,
        "meta_mean_motion_ddot": 0,
        "tle_line1": "1 43632U 18074A   25356.12949549  .00000159  00000+0  00000+0 0  9995",
        "tle_line2": "2 43632   0.0187 348.1932 0001174 279.5458 274.9316  1.00270026 26670"
      },
      "geometry": {
        "type": "Point",
        "coordinates": [
          30.441654900466045,
          0.024888950673837555
        ]
      }
    },
    {
      "type": "Feature",
      "properties": {
        "norad_id": 43633,
        "name": "HORIZONS-3E",
        "group": "intelsat",
        "lat": -0.008710173829723201,
        "lon": 154.29908324795514,
        "alt_km": 35788.72741712314,
        "timestamp": "2025-12-22T16:55:17.118316+00:00",
        "meta_object_name": "HORIZONS-3E",
        "meta_object_id": "2018-074B",
        "meta_epoch": "2025-12-22T05:24:30.190752",
        "meta_mean_motion": 1.00270178,
        "meta_eccentricity": 5.673e-05,
        "meta_inclination": 0.0097,
        "meta_ra_of_asc_node": 216.8452,
        "meta_arg_of_pericenter": 94.9387,
        "meta_mean_anomaly": 29.3592,
        "meta_ephemeris_type": 0,
        "meta_classification_type": "U",
        "meta_norad_cat_id": 43633,
        "meta_element_set_no": 999,
        "meta_rev_at_epoch": 2656,
        "meta_bstar": 0,
        "meta_mean_motion_dot": 0,
        "meta_mean_motion_ddot": 0,
        "tle_line1": "1 43633U 18074B   25356.22534943  .00000000  00000+0  00000+0 0  9990",
        "tle_line2": "2 43633   0.0097 216.8452 0000567  94.9387  29.3592  1.00270178 26568"
      },
      "geometry": {
        "type": "Point",
        "coordinates": [
          154.29908324795514,
          -0.008710173829723201
        ]
      }
    }
  ]
}